NORAD_CAT_ID,OBJECT_NAME,OBJECT_TYPE,EPOCH,MEAN_MOTION,ECCENTRICITY,INCLINATION,RA_OF_ASC_NODE,ARG_OF_PERICENTER,MEAN_ANOMALY,BSTAR,MEAN_MOTION_DOT,MEAN_MOTION_DDOT,TLE_LINE0,TLE_LINE1,TLE_LINE2,SEMIMAJOR_AXIS,PERIOD,APOGEE,PERIGEE,DECAYED
49740.0,STARLINK-3226,PAYLOAD,2022-05-01 14:00:01,15.0885073,0.0002215,53.2161,350.3564,45.6552,90.0505,-0.0031552,-0.0005017,0.0,0 STARLINK-3226,1 49740U 21115S   22121.58334491 -.00050170  00000-0 -31552-2 0  9992,2 49740  53.2161 350.3564 0002215  45.6552  90.0505 15.08850730  3589,6917.848000000001,95.437,541.245,538.18,0.0
49740.0,STARLINK-3226,PAYLOAD,2022-05-01 22:00:01,15.08854517,0.0002351,53.2152,348.8728,40.1417,107.2337,-0.0026055,-0.00041534,0.0,0 STARLINK-3226,1 49740U 21115S   22121.91668981 -.00041534  00000-0 -26055-2 0  9999,2 49740  53.2152 348.8728 0002351  40.1417 107.2337 15.08854517 24117,6917.8359999999975,95.437,541.327,538.075,0.0
49740.0,STARLINK-3226,PAYLOAD,2022-05-02 14:00:01,15.08813012,0.0002122,53.2155,345.87800000000016,40.895,129.6066,0.0018822,0.00029772,0.0,0 STARLINK-3226,1 49740U 21115S   22122.58334491  .00029772  00000-0  18822-2 0  9990,2 49740  53.2155 345.8780 0002122  40.8950 129.6066 15.08813012 24213,6917.9630000000025,95.439,541.2959999999998,538.36,0.0
49740.0,STARLINK-3226,PAYLOAD,2022-05-02 22:00:01,15.08824739,0.0002347,53.2155,344.3834,37.97,144.1702,0.00042917,6.546e-05,0.0,0 STARLINK-3226,1 49740U 21115S   22122.91668981  .00006546  00000-0  42917-3 0  9998,2 49740  53.2155 344.3834 0002347  37.9700 144.1702 15.08824739  3614,6917.927,95.439,541.4159999999998,538.168,0.0
49740.0,STARLINK-3226,PAYLOAD,2022-05-03 04:00:00,15.08835243,0.0002371,53.2153,343.2609,36.1556,64.6019,0.00061594,9.527e-05,0.0,0 STARLINK-3226,1 49740U 21115S   22123.16667824  .00009527  00000-0  61594-3 0  9995,2 49740  53.2153 343.2609 0002371  36.1556  64.6019 15.08835243 24305,6917.895,95.438,541.4,538.12,0.0
49740.0,STARLINK-3226,PAYLOAD,2022-05-03 14:00:01,15.08846332,0.0002186,53.2158,341.3886,42.0104,163.2395,0.00083002,0.00012949,0.0,0 STARLINK-3226,1 49740U 21115S   22123.58334491  .00012949  00000-0  83002-3 0  9992,2 49740  53.2158 341.3886 0002186  42.0104 163.2395 15.08846332  3609,6917.861,95.437,541.238,538.214,0.0
49740.0,STARLINK-3226,PAYLOAD,2022-05-03 22:00:00,15.08834648,0.0002375,53.2158,339.8939,37.1744,179.6905,-0.00020234,-3.507e-05,0.0,0 STARLINK-3226,1 49740U 21115S   22123.91667824 -.00003507  00000-0 -20234-3 0  9998,2 49740  53.2158 339.8939 0002375  37.1744 179.6905 15.08834648  3565,6917.897,95.438,541.405,538.119,0.0
49740.0,STARLINK-3226,PAYLOAD,2022-05-04 06:00:02,15.08856375,0.0002281,53.2159,338.3964,36.8141,191.6972,-0.0014862,-0.00023875,0.0,0 STARLINK-3226,1 49740U 21115S   22124.25002315 -.00023875  00000-0 -14862-2 0  9993,2 49740  53.2159 338.3964 0002281  36.8141 191.6972 15.08856375 24462,6917.83,95.437,541.273,538.117,0.0
49740.0,STARLINK-3226,PAYLOAD,2022-05-04 14:00:01,15.08853743,0.0002143,53.2162,336.8992,40.9791,199.0708,0.00058734,9.075e-05,0.0,0 STARLINK-3226,1 49740U 21115S   22124.58334491  .00009075  00000-0  58734-3 0  9993,2 49740  53.2162 336.8992 0002143  40.9791 199.0708 15.08853743  3602,6917.8380000000025,95.437,541.186,538.221,0.0
49740.0,STARLINK-3226,PAYLOAD,2022-05-04 22:00:01,15.08826125,0.0002319,53.2162,335.4044,35.401,216.3249,0.0012622,0.0001985,0.0,0 STARLINK-3226,1 49740U 21115S   22124.91668981  .00019850  00000-0  12622-2 0  9991,2 49740  53.2162 335.4044 0002319  35.4010 216.3249 15.08826125  3600,6917.9230000000025,95.438,541.3919999999998,538.184,0.0
49740.0,STARLINK-3226,PAYLOAD,2022-05-05 06:00:00,15.08866301,0.0002191,53.2161,333.907,35.2227,228.0207,-0.0029782,-0.0004741,0.0,0 STARLINK-3226,1 49740U 21115S   22125.25001157 -.00047410  00000-0 -29782-2 0  9995,2 49740  53.2161 333.9070 0002191  35.2227 228.0207 15.08866301 24626,6917.8,95.436,541.181,538.149,0.0
49740.0,STARLINK-3226,PAYLOAD,2022-05-05 14:00:01,15.0883297,0.0002044,53.2164,332.4099,38.2973,236.5526,0.00060475,9.348e-05,0.0,0 STARLINK-3226,1 49740U 21115S   22125.58334491  .00009348  00000-0  60475-3 0  9992,2 49740  53.2164 332.4099 0002044  38.2973 236.5526 15.08832970  3565,6917.901999999999,95.438,541.181,538.3530000000002,0.0
49740.0,STARLINK-3226,PAYLOAD,2022-05-05 22:00:00,15.08823552,0.0002262,53.2162,330.9152,34.0845,252.3588,0.0014114,0.00022236,0.0,0 STARLINK-3226,1 49740U 21115S   22125.91667824  .00022236  00000-0  14114-2 0  9997,2 49740  53.2162 330.9152 0002262  34.0845 252.3588 15.08823552 24721,6917.931,95.439,541.361,538.231,0.0
49740.0,STARLINK-3226,PAYLOAD,2022-05-06 14:00:01,15.08824521,0.0001958,53.2162,327.9208,36.6608,272.9563,0.00097079,0.00015189,0.0,0 STARLINK-3226,1 49740U 21115S   22126.58334491  .00015189  00000-0  97079-3 0  9993,2 49740  53.2162 327.9208 0001958  36.6608 272.9563 15.08824521 24824,6917.928000000001,95.439,541.1469999999998,538.438,0.0
49740.0,STARLINK-3226,PAYLOAD,2022-05-07 14:00:01,15.08865043,0.0002021,53.2166,323.4209,36.9375,307.436,-0.0058195,-0.00091793,0.0,0 STARLINK-3226,1 49740U 21115S   22127.58334491 -.00091793  00000-0 -58195-2 0  9996,2 49740  53.2166 323.4209 0002021  36.9375 307.4360 15.08865043 24975,6917.804,95.436,541.067,538.271,0.0
49740.0,STARLINK-3226,PAYLOAD,2022-05-07 22:00:00,15.0884536,0.0002193,53.2156,321.9373,33.49,322.4916,-0.0010087,-0.00016309,0.0,0 STARLINK-3226,1 49740U 21115S   22127.91667824 -.00016309  00000-0 -10087-2 0  9990,2 49740  53.2156 321.9373 0002193  33.4900 322.4916 15.08845360 25026,6917.864000000001,95.437,541.246,538.212,0.0
49740.0,STARLINK-3226,PAYLOAD,2022-05-08 14:00:01,15.08844432,0.0002001,53.2154,318.9429,36.8884,342.2685,3.1773e-05,2.18e-06,0.0,0 STARLINK-3226,1 49740U 21115S   22128.58334491  .00000218  00000-0  31773-4 0  9992,2 49740  53.2154 318.9429 0002001  36.8884 342.2685 15.08844432  3611,6917.8669999999975,95.437,541.116,538.3480000000002,0.0
49740.0,STARLINK-3226,PAYLOAD,2022-05-08 22:00:00,15.088338,0.0002206,53.2153,317.4482,32.3842,358.3758,0.00056206,8.667e-05,0.0,0 STARLINK-3226,1 49740U 21115S   22128.91667824  .00008667  00000-0  56206-3 0  9991,2 49740  53.2153 317.4482 0002206  32.3842 358.3758 15.08833800 25176,6917.899,95.438,541.29,538.238,0.0
49740.0,STARLINK-3226,PAYLOAD,2022-05-09 14:00:01,15.08844052,0.0002042,53.2152,314.4537,34.9389,19.0608,-0.0001246,-2.271e-05,0.0,0 STARLINK-3226,1 49740U 21115S   22129.58335648 -.00002271  00000-0 -12460-3 0  9992,2 49740  53.2152 314.4537 0002042  34.9389  19.0608 15.08844052  3571,6917.868,95.437,541.146,538.32,0.0
49740.0,STARLINK-3226,PAYLOAD,2022-05-09 22:00:00,15.08827377,0.0002283,53.2152,312.9589,32.0292,33.5097,0.0016547,0.00026136,0.0,0 STARLINK-3226,1 49740U 21115S   22129.91667824  .00026136  00000-0  16547-2 0  9996,2 49740  53.2152 312.9589 0002283  32.0292  33.5097 15.08827377  3574,6917.919,95.438,541.363,538.205,0.0
49740.0,STARLINK-3226,PAYLOAD,2022-05-10 00:00:00,15.08838924,0.000231,53.2149,312.5846,31.3836,127.0504,0.00023702,3.486e-05,0.0,0 STARLINK-3226,1 49740U 21115S   22130.00001157  .00003486  00000-0  23702-3 0  9994,2 49740  53.2149 312.5846 0002310  31.3836 127.0504 15.08838924 25339,6917.884,95.438,541.347,538.151,0.0
49740.0,STARLINK-3226,PAYLOAD,2022-05-10 14:00:01,15.08845125,0.0002217,53.2154,309.9645,38.255,50.456,-0.00054895,-9.016e-05,0.0,0 STARLINK-3226,1 49740U 21115S   22130.58334491 -.00009016  00000-0 -54895-3 0  9991,2 49740  53.2154 309.9645 0002217  38.2550  50.4560 15.08845125  3605,6917.865,95.437,541.263,538.196,0.0
49740.0,STARLINK-3226,PAYLOAD,2022-05-10 18:00:00,15.08837547,0.0002359,53.2152,309.2174,36.0864,238.4216,-0.0004875,-8.038e-05,0.0,0 STARLINK-3226,1 49740U 21115S   22130.75001157 -.00008038  00000-0 -48750-3 0  9996,2 49740  53.2152 309.2174 0002359  36.0864 238.4216 15.08837547 25456,6917.888000000001,95.438,541.385,538.121,0.0
49740.0,STARLINK-3226,PAYLOAD,2022-05-11 22:00:00,15.08810473,0.0002412,53.2154,303.9803,33.15,101.9192,0.0034989,0.00055794,0.0,0 STARLINK-3226,1 49740U 21115S   22131.91667824  .00055794  00000-0  34989-2 0  9991,2 49740  53.2154 303.9803 0002412  33.1500 101.9192 15.08810473 25628,6917.971,95.439,541.504,538.1669999999998,0.0
49740.0,STARLINK-3226,PAYLOAD,2022-05-12 14:00:01,15.088839800000002,0.0002231,53.2157,300.9859,36.7105,121.5486,-0.0029048,-0.00046279,0.0,0 STARLINK-3226,1 49740U 21115S   22132.58334491 -.00046279  00000-0 -29048-2 0  9996,2 49740  53.2157 300.9859 0002231  36.7105 121.5486 15.08883980  1304,6917.746,95.435,541.154,538.068,0.0
49740.0,STARLINK-3226,PAYLOAD,2022-05-12 20:00:01,15.08840981,0.0002361,53.2155,299.8648,33.1272,43.864,0.00068136,0.00010573,0.0,0 STARLINK-3226,1 49740U 21115S   22132.83334491  .00010573  00000-0  68136-3 0  9992,2 49740  53.2155 299.8648 0002361  33.1272  43.8640 15.08840981 25762,6917.877,95.437,541.376,538.109,0.0
49740.0,STARLINK-3226,PAYLOAD,2022-05-12 22:00:00,15.08821163,0.0002366,53.2153,299.4907,31.1453,138.753,0.0034765,0.00055449,0.0,0 STARLINK-3226,1 49740U 21115S   22132.91667824  .00055449  00000-0  34765-2 0  9991,2 49740  53.2153 299.4907 0002366  31.1453 138.7530 15.08821163  1305,6917.938,95.439,541.44,538.1659999999998,0.0
49740.0,STARLINK-3226,PAYLOAD,2022-05-13 14:00:01,15.08853173,0.0002108,53.2155,296.4965,32.5899,160.488,-0.0022479,-0.000359,0.0,0 STARLINK-3226,1 49740U 21115S   22133.58334491 -.00035900  00000-0 -22479-2 0  9997,2 49740  53.2155 296.4965 0002108  32.5899 160.4880 15.08853173 25875,6917.84,95.437,541.163,538.247,0.0
49740.0,STARLINK-3226,PAYLOAD,2022-05-13 22:00:00,15.08803733,0.0002263,53.215,295.0011,27.5746,177.1086,0.0022184,0.0003516,0.0,0 STARLINK-3226,1 49740U 21115S   22133.91667824  .00035160  00000-0  22184-2 0  9992,2 49740  53.2150 295.0011 0002263  27.5746 177.1086 15.08803733  1306,6917.991,95.44,541.422,538.2909999999998,0.0
